[{"OBJECT_NAME":"IRIDIUM 168","OBJECT_ID":"2019-002C","EPOCH":"2026-03-09T22:03:03.105216","MEAN_MOTION":14.34216679,"ECCENTRICITY":0.00021737,"INCLINATION":86.3975,"RA_OF_ASC_NODE":35.1435,"ARG_OF_PERICENTER":86.4602,"MEAN_ANOMALY":273.6843,"EPHEMERIS_TYPE":0,"CLASSIFICATION_TYPE":"U","NORAD_CAT_ID":43924,"ELEMENT_SET_NO":999,"REV_AT_EPOCH":37474,"BSTAR":0.00012475836,"MEAN_MOTION_DOT":3.69e-6,"MEAN_MOTION_DDOT":0},{"OBJECT_NAME":"CZ-6A DEB","OBJECT_ID":"2024-140MK","EPOCH":"2026-03-09T14:05:40.674048","MEAN_MOTION":14.42373853,"ECCENTRICITY":0.0061437,"INCLINATION":88.9274,"RA_OF_ASC_NODE":278.7768,"ARG_OF_PERICENTER":233.1914,"MEAN_ANOMALY":126.3643,"EPHEMERIS_TYPE":0,"CLASSIFICATION_TYPE":"U","NORAD_CAT_ID":60984,"ELEMENT_SET_NO":999,"REV_AT_EPOCH":8132,"BSTAR":0.00019576,"MEAN_MOTION_DOT":6.77e-6,"MEAN_MOTION_DDOT":0}]
